{"type": "FeatureCollection", "features": [ {"type": "Feature", "properties": {"norad_id": 66569, "name": "STARLINK-35835", "group": "last-30-days", "lat": 40.15640554051653, "lon": -150.85863286882687, "alt_km": 408.71837873920504, "timestamp": "2025-12-17T09:00:15.889877+00:00", "meta": {"OBJECT_NAME": "STARLINK-35835", "OBJECT_ID": "2025-268N", "EPOCH": "2025-12-15T17:53:30.134688", "MEAN_MOTION": 15.50581218, "ECCENTRICITY": 0.00013774, "INCLINATION": 43.0003, "RA_OF_ASC_NODE": 103.5637, "ARG_OF_PERICENTER": 270.128, "MEAN_ANOMALY": 89.9422, "EPHEMERIS_TYPE": 0, "CLASSIFICATION_TYPE": "U", "NORAD_CAT_ID": 66569, "ELEMENT_SET_NO": 999, "REV_AT_EPOCH": 509, "BSTAR": 0.0014471406, "MEAN_MOTION_DOT": 0.00085494, "MEAN_MOTION_DDOT": 0}, "tle": {"line1": "1 66569U 25268N   25349.74548767  .00085494  00000+0  14471-2 0  9994", "line2": "2 66569  43.0003 103.5637 0001377 270.1280  89.9422 15.50581218  5091"}}, "geometry": {"type": "Point", "coordinates": [-150.85863286882687, 40.15640554051653]}}, {"type": "Feature", "properties": {"norad_id": 66570, "name": "STARLINK-35834", "group": "last-30-days", "lat": 39.84463912522849, "lon": -149.5460616911474, "alt_km": 409.6715019524645, "timestamp": "2025-12-17T09:00:15.889887+00:00", "meta": {"OBJECT_NAME": "STARLINK-35834", "OBJECT_ID": "2025-268P", "EPOCH": "2025-12-16T22:00:03.000096", "MEAN_MOTION": 15.50536693, "ECCENTRICITY": 0.00015212, "INCLINATION": 43.0006, "RA_OF_ASC_NODE": 96.7092, "ARG_OF_PERICENTER": 267.9923, "MEAN_ANOMALY": 159.6491, "EPHEMERIS_TYPE": 0, "CLASSIFICATION_TYPE": "U", "NORAD_CAT_ID": 66570, "ELEMENT_SET_NO": 999, "REV_AT_EPOCH": 533, "BSTAR": 0.00073161322, "MEAN_MOTION_DOT": 0.00042748, "MEAN_MOTION_DDOT": 0}, "tle": {"line1": "1 66570U 25268P   25350.91670139  .00042748  00000+0  73161-3 0  9993", "line2": "2 66570  43.0006  96.7092 0001521 267.9923 159.6491 15.50536693  5338"}}, "geometry": {"type": "Point", "coordinates": [-149.5460616911474, 39.84463912522849]}}, {"type": "Feature", "properties": {"norad_id": 66571, "name": "STARLINK-35836", "group": "last-30-days", "lat": 38.98162142691612, "lon": -146.27729907103577, "alt_km": 408.9992361436007, "timestamp": "2025-12-17T09:00:15.889901+00:00", "meta": {"OBJECT_NAME": "STARLINK-35836", "OBJECT_ID": "2025-268Q", "EPOCH": "2025-12-15T16:19:45.764256", "MEAN_MOTION": 15.50585283, "ECCENTRICITY": 0.00014873, "INCLINATION": 42.9954, "RA_OF_ASC_NODE": 103.9347, "ARG_OF_PERICENTER": 312.1791, "MEAN_ANOMALY": 47.8943, "EPHEMERIS_TYPE": 0, "CLASSIFICATION_TYPE": "U", "NORAD_CAT_ID": 66571, "ELEMENT_SET_NO": 999, "REV_AT_EPOCH": 508, "BSTAR": 0.0011259195, "MEAN_MOTION_DOT": 0.00066287, "MEAN_MOTION_DDOT": 0}, "tle": {"line1": "1 66571U 25268Q   25349.68039079  .00066287  00000+0  11259-2 0  9991", "line2": "2 66571  42.9954 103.9347 0001487 312.1791  47.8943 15.50585283  5081"}}, "geometry": {"type": "Point", "coordinates": [-146.27729907103577, 38.98162142691612]}}, {"type": "Feature", "properties": {"norad_id": 66572, "name": "STARLINK-35870", "group": "last-30-days", "lat": 38.472415083087206, "lon": -144.4922200281422, "alt_km": 409.8423381437051, "timestamp": "2025-12-17T09:00:15.889915+00:00", "meta": {"OBJECT_NAME": "STARLINK-35870", "OBJECT_ID": "2025-268R", "EPOCH": "2025-12-16T13:57:52.036128", "MEAN_MOTION": 15.50629626, "ECCENTRICITY": 0.00023174, "INCLINATION": 43.0015, "RA_OF_ASC_NODE": 98.659, "ARG_OF_PERICENTER": 263.9078, "MEAN_ANOMALY": 96.1518, "EPHEMERIS_TYPE": 0, "CLASSIFICATION_TYPE": "U", "NORAD_CAT_ID": 66572, "ELEMENT_SET_NO": 999, "REV_AT_EPOCH": 522, "BSTAR": 0.0012125848, "MEAN_MOTION_DOT": 0.0007158, "MEAN_MOTION_DDOT": 0}, "tle": {"line1": "1 66572U 25268R   25350.58185227  .00071580  00000+0  12126-2 0  9996", "line2": "2 66572  43.0015  98.6590 0002317 263.9078  96.1518 15.50629626  5227"}}, "geometry": {"type": "Point", "coordinates": [-144.4922200281422, 38.472415083087206]}}, {"type": "Feature", "properties": {"norad_id": 66573, "name": "STARLINK-35650", "group": "last-30-days", "lat": 36.316134569154315, "lon": -138.07780497007832, "alt_km": 408.30786073943636, "timestamp": "2025-12-17T09:00:15.889926+00:00", "meta": {"OBJECT_NAME": "STARLINK-35650", "OBJECT_ID": "2025-268S", "EPOCH": "2025-12-16T15:29:39.161760", "MEAN_MOTION": 15.51253867, "ECCENTRICITY": 0.00025406, "INCLINATION": 42.9964, "RA_OF_ASC_NODE": 98.2753, "ARG_OF_PERICENTER": 312.0819, "MEAN_ANOMALY": 47.9825, "EPHEMERIS_TYPE": 0, "CLASSIFICATION_TYPE": "U", "NORAD_CAT_ID": 66573, "ELEMENT_SET_NO": 999, "REV_AT_EPOCH": 523, "BSTAR": 0.002315295, "MEAN_MOTION_DOT": 0.00141337, "MEAN_MOTION_DDOT": 0}, "tle": {"line1": "1 66573U 25268S   25350.64559215  .00141337  00000+0  23153-2 0  9996", "line2": "2 66573  42.9964  98.2753 0002540 312.0819  47.9825 15.51253867  5230"}}, "geometry": {"type": "Point", "coordinates": [-138.07780497007832, 36.316134569154315]}}, {"type": "Feature", "properties": {"norad_id": 66574, "name": "STARLINK-35812", "group": "last-30-days", "lat": 36.935405240659975, "lon": -139.77545411701882, "alt_km": 409.36931572236426, "timestamp": "2025-12-17T09:00:15.889936+00:00", "meta": {"OBJECT_NAME": "STARLINK-35812", "OBJECT_ID": "2025-268T", "EPOCH": "2025-12-16T15:29:38.663232", "MEAN_MOTION": 15.50718771, "ECCENTRICITY": 0.00015507, "INCLINATION": 43.0004, "RA_OF_ASC_NODE": 98.2749, "ARG_OF_PERICENTER": 319.105, "MEAN_ANOMALY": 40.9693, "EPHEMERIS_TYPE": 0, "CLASSIFICATION_TYPE": "U", "NORAD_CAT_ID": 66574, "ELEMENT_SET_NO": 999, "REV_AT_EPOCH": 523, "BSTAR": 0.001231325, "MEAN_MOTION_DOT": 0.00072934, "MEAN_MOTION_DDOT": 0}, "tle": {"line1": "1 66574U 25268T   25350.64558638  .00072934  00000+0  12313-2 0  9997", "line2": "2 66574  43.0004  98.2749 0001550 319.1050  40.9693 15.50718771  5233"}}, "geometry": {"type": "Point", "coordinates": [-139.77545411701882, 36.935405240659975]}}, {"type": "Feature", "properties": {"norad_id": 66575, "name": "STARLINK-35810", "group": "last-30-days", "lat": 36.36270704042713, "lon": -138.1906196319289, "alt_km": 410.17782974622787, "timestamp": "2025-12-17T09:00:15.889946+00:00", "meta": {"OBJECT_NAME": "STARLINK-35810", "OBJECT_ID": "2025-268U", "EPOCH": "2025-12-16T22:00:03.000096", "MEAN_MOTION": 15.50535732, "ECCENTRICITY": 0.00015144, "INCLINATION": 43.0006, "RA_OF_ASC_NODE": 96.6856, "ARG_OF_PERICENTER": 273.8704, "MEAN_ANOMALY": 163.355, "EPHEMERIS_TYPE": 0, "CLASSIFICATION_TYPE": "U", "NORAD_CAT_ID": 66575, "ELEMENT_SET_NO": 999, "REV_AT_EPOCH": 533, "BSTAR": 0.00083595893, "MEAN_MOTION_DOT": 0.00048931, "MEAN_MOTION_DDOT": 0}, "tle": {"line1": "1 66575U 25268U   25350.91670139  .00048931  00000+0  83596-3 0  9991", "line2": "2 66575  43.0006  96.6856 0001514 273.8704 163.3550 15.50535732  5336"}}, "geometry": {"type": "Point", "coordinates": [-138.1906196319289, 36.36270704042713]}}, {"type": "Feature", "properties": {"norad_id": 66576, "name": "STARLINK-35814", "group": "last-30-days", "lat": 35.56785019073441, "lon": -136.11986137163532, "alt_km": 410.2949639763774, "timestamp": "2025-12-17T09:00:15.889956+00:00", "meta": {"OBJECT_NAME": "STARLINK-35814", "OBJECT_ID": "2025-268V", "EPOCH": "2025-12-16T22:00:03.000096", "MEAN_MOTION": 15.50564389, "ECCENTRICITY": 0.00016412, "INCLINATION": 43.0005, "RA_OF_ASC_NODE": 96.6805, "ARG_OF_PERICENTER": 271.8764, "MEAN_ANOMALY": 167.1667, "EPHEMERIS_TYPE": 0, "CLASSIFICATION_TYPE": "U", "NORAD_CAT_ID": 66576, "ELEMENT_SET_NO": 999, "REV_AT_EPOCH": 533, "BSTAR": 0.0006766831, "MEAN_MOTION_DOT": 0.00039536, "MEAN_MOTION_DDOT": 0}, "tle": {"line1": "1 66576U 25268V   25350.91670139  .00039536  00000+0  67668-3 0  9995", "line2": "2 66576  43.0005  96.6805 0001641 271.8764 167.1667 15.50564389  5336"}}, "geometry": {"type": "Point", "coordinates": [-136.11986137163532, 35.56785019073441]}}, {"type": "Feature", "properties": {"norad_id": 66577, "name": "STARLINK-35815", "group": "last-30-days", "lat": 34.63142059248918, "lon": -133.82911919251748, "alt_km": 411.69695755624616, "timestamp": "2025-12-17T09:00:15.889966+00:00", "meta": {"OBJECT_NAME": "STARLINK-35815", "OBJECT_ID": "2025-268W", "EPOCH": "2025-12-16T15:28:09.538176", "MEAN_MOTION": 15.5058695, "ECCENTRICITY": 0.00037645, "INCLINATION": 43.0044, "RA_OF_ASC_NODE": 98.2675, "ARG_OF_PERICENTER": 284.3538, "MEAN_ANOMALY": 75.6905, "EPHEMERIS_TYPE": 0, "CLASSIFICATION_TYPE": "U", "NORAD_CAT_ID": 66577, "ELEMENT_SET_NO": 999, "REV_AT_EPOCH": 523, "BSTAR": 0.0010398035, "MEAN_MOTION_DOT": 0.00061165, "MEAN_MOTION_DDOT": 0}, "tle": {"line1": "1 66577U 25268W   25350.64455484  .00061165  00000+0  10398-2 0  9990", "line2": "2 66577  43.0044  98.2675 0003764 284.3538  75.6905 15.50586950  5234"}}, "geometry": {"type": "Point", "coordinates": [-133.82911919251748, 34.63142059248918]}}, {"type": "Feature", "properties": {"norad_id": 66578, "name": "STARLINK-35743", "group": "last-30-days", "lat": 33.645099053594734, "lon": -131.5914051582239, "alt_km": 409.5908969779357, "timestamp": "2025-12-17T09:00:15.889978+00:00", "meta": {"OBJECT_NAME": "STARLINK-35743", "OBJECT_ID": "2025-268X", "EPOCH": "2025-12-16T15:27:40.171680", "MEAN_MOTION": 15.50650495, "ECCENTRICITY": 9.315e-05, "INCLINATION": 43.0001, "RA_OF_ASC_NODE": 98.2641, "ARG_OF_PERICENTER": 248.4548, "MEAN_ANOMALY": 111.6213, "EPHEMERIS_TYPE": 0, "CLASSIFICATION_TYPE": "U", "NORAD_CAT_ID": 66578, "ELEMENT_SET_NO": 999, "REV_AT_EPOCH": 523, "BSTAR": 0.0010172314, "MEAN_MOTION_DOT": 0.00059945, "MEAN_MOTION_DDOT": 0}, "tle": {"line1": "1 66578U 25268X   25350.64421495  .00059945  00000+0  10172-2 0  9999", "line2": "2 66578  43.0001  98.2641 0000931 248.4548 111.6213 15.50650495  5235"}}, "geometry": {"type": "Point", "coordinates": [-131.5914051582239, 33.645099053594734]}}]}